ORBCOMM FM24 [-]        
1 25478U 98053D   24012.67331942  .00001433  00000+0  54649-3 0  9996
2 25478  45.0073 215.7555 0001544 126.1092 233.9898 14.35102876322457
ORBCOMM FM25 [-]        
1 25479U 98053E   24012.91663924  .00001468  00000+0  55881-3 0  9999
2 25479  45.0065 212.8447 0003957 151.1860 208.9206 14.35084894322788
ORBCOMM FM26 [-]        
1 25480U 98053F   24012.67164729  .00001353  00000+0  52389-3 0  9996
2 25480  45.0060 207.6550 0005903 174.3634 185.7280 14.34608044322693
ORBCOMM FM27 [+]        
1 25481U 98053G   24012.90295438  .00001521  00000+0  57767-3 0  9997
2 25481  45.0049 213.1699 0000222  43.1411 316.9453 14.35064013322718
ORBCOMM FM28 [-]        
1 25482U 98053H   24012.50960381  .00001947  00000+0  71880-3 0  9994
2 25482  45.0054 153.9063 0005068 203.0967 156.9653 14.35531336323326
ORBCOMM FM30 [-]        
1 25980U 99065A   24012.92368393  .00001703  00000+0  64459-3 0  9996
2 25980  45.0336  31.8800 0008156 278.3544  81.6379 14.34751712259522
ORBCOMM FM31 [-]        
1 25981U 99065B   24012.40256773  .00001629  00000+0  61891-3 0  9992
2 25981  45.0250  28.1215 0005235 291.9960  68.0331 14.34762972259005
ORBCOMM FM32 [+]        
1 25982U 99065C   24012.92567373  .00001654  00000+0  64012-3 0  9997
2 25982  45.0178  38.5975 0007399 296.6813  63.3276 14.33741833259722
